OBJECT_NAME,OBJECT_ID,EPOCH,MEAN_MOTION,ECCENTRICITY,INCLINATION,RA_OF_ASC_NODE,ARG_OF_PERICENTER,MEAN_ANOMALY,EPHEMERIS_TYPE,CLASSIFICATION_TYPE,NORAD_CAT_ID,ELEMENT_SET_NO,REV_AT_EPOCH,BSTAR,MEAN_MOTION_DOT,MEAN_MOTION_DDOT
SIRION PATHFINDER-2,2018-099B,2026-05-16T06:25:09.508224,15.14238111,.00100644,97.4277,186.0869,57.9700,302.2508,0,U,43759,999,40779,.21501404E-3,.3869E-4,0
CORVUS BC4,2018-099K,2026-05-16T05:32:42.214560,15.12216553,.00100492,97.4091,180.1494,109.1078,251.1242,0,U,43767,999,40757,.17341838E-3,.2935E-4,0
M2 PATHFINDER,2020-037E,2026-05-16T04:35:18.135168,15.04529167,.00099447,97.8164,327.0655,259.5431,100.4674,0,U,45727,999,32068,.10503782E-3,.1409E-4,0
NETSAT-4,2020-068U,2026-05-16T03:49:31.094688,15.42740013,.00075768,97.8609,141.8555,82.0985,278.1120,0,U,46504,999,31083,.34590583E-3,.15042E-3,0
NETSAT-3,2020-068V,2026-05-16T06:29:22.973856,15.41516300,.00075188,97.8658,140.2337,94.5815,265.6290,0,U,46505,999,31076,.37573548E-3,.15693E-3,0
NETSAT-1,2020-068W,2026-05-15T23:32:56.896512,15.33808853,.00068809,97.8744,134.6248,114.4981,245.6978,0,U,46506,999,31036,.27257374E-3,.8832E-4,0
NETSAT-2,2020-068X,2026-05-16T04:12:43.892928,15.44564228,.0006259,97.8626,141.6591,103.8094,256.3850,0,U,46507,999,31079,.41579906E-3,.19254E-3,0
GREENCUBE (IO-117),2022-080E,2026-05-15T19:29:10.344192,6.42583305,.00088173,70.1434,309.5088,297.1512,62.8248,0,U,53109,999,8998,0,-.3E-7,0
SITRO-AIS 5 (KATYS),2023-091L,2026-05-16T03:13:11.639136,15.28668923,.00110015,97.5081,199.7453,207.8945,152.1706,0,U,57176,999,15944,.32921492E-3,.9119E-4,0
SITRO-AIS 6 (CHIRKIN),2023-091AC,2026-05-16T02:32:58.723008,15.25283850,.00111606,97.5088,199.0025,211.4809,148.5762,0,U,57192,999,15939,.29271433E-3,.7306E-4,0
SITRO-AIS 8 (ANOKHIN),2023-091AD,2026-05-16T03:22:10.357824,15.31211488,.00103243,97.5076,201.2135,203.0981,156.9797,0,U,57193,999,15954,.37920645E-3,.11376E-3,0
SITRO-AIS 7 (FARTUSHNIY),2023-091AE,2026-05-16T02:28:17.871168,15.24988122,.00109891,97.5086,198.8406,212.5260,147.5301,0,U,57194,999,15938,.27904866E-3,.6899E-4,0
SITRO-AIS 10 (BURDAEV),2023-091AK,2026-05-16T04:08:52.050624,15.37327889,.00073365,97.5100,205.9799,175.3854,184.7459,0,U,57199,999,15984,.42377708E-3,.15443E-3,0
SITRO-AIS 9 (SHCHUKIN),2023-091AM,2026-05-16T02:59:04.680672,15.36872168,.00075438,97.5098,205.6846,176.2870,183.8432,0,U,57201,999,15982,.43331372E-3,.15562E-3,0
SITRO-AIS 12 (SMIRENNIY),2023-091AQ,2026-05-16T04:27:56.462688,15.37161945,.00073327,97.5110,206.1949,170.0069,190.1322,0,U,57204,999,15985,.49212567E-3,.17856E-3,0
SITRO-AIS 11 (SHEFFER),2023-091AU,2026-05-16T03:25:48.977472,15.37550412,.00072572,97.5108,206.3781,169.8015,190.3378,0,U,57208,999,15986,.43833748E-3,.16093E-3,0
SITRO-AIS 25,2024-039R,2026-05-16T05:08:42.806976,14.93279889,.01473896,95.3920,213.1245,80.1333,281.6496,0,U,59066,999,11995,.2886825E-3,.3709E-4,0
SITRO-AIS 26,2024-039S,2026-05-16T03:27:58.802112,14.93080809,.01477071,95.3921,212.9807,80.9138,280.8767,0,U,59067,999,11993,.25569213E-3,.3267E-4,0
SITRO-AIS 27,2024-039T,2026-05-16T04:34:26.504256,14.93493475,.01467817,95.3925,213.2693,79.4314,282.3407,0,U,59068,999,11996,.22588312E-3,.2907E-4,0
SITRO-AIS 28,2024-039U,2026-05-16T04:03:01.416960,14.93529477,.01467686,95.3926,213.2997,79.3844,282.3873,0,U,59071,999,11996,.28277868E-3,.3651E-4,0
GRBBETA,2024-128C,2026-05-16T00:41:01.971456,15.06357396,.00450044,61.9902,329.0722,128.0351,232.4817,0,U,60237,999,10142,.19902973E-3,.2788E-4,0
OOV-CUBE (TUBSAT-30),2024-128F,2026-05-16T01:09:39.079008,15.02598646,.00486163,61.9948,337.6259,126.7646,233.7923,0,U,60240,999,10128,.12231553E-3,.146E-4,0
ROBUSTA-3A (MEDITERRANEE),2024-128J,2026-05-15T21:58:33.299616,15.11135148,.0045659,61.9865,322.3232,121.9263,238.6285,0,U,60243,999,10154,.34359984E-3,.5708E-4,0
LASARSAT,2024-247Q,2026-05-16T05:40:02.601408,15.44289693,.00050408,44.9749,81.4658,144.8918,215.2304,0,U,62391,999,7837,.61853048E-3,.28867E-3,0
CROCUBE,2024-247T,2026-05-15T13:25:14.155968,15.45851171,.00046634,44.9721,83.0806,142.7008,217.4206,0,U,62394,999,7829,.454458E-3,.22265E-3,0
FORESAIL-1 PRIME,2025-276DS,2026-05-16T04:03:53.445312,15.18387157,.0002109,97.4210,210.0321,176.1142,184.0109,0,U,66778,999,2554,.17239759E-3,.3477E-4,0
KNACKSAT-2,1998-067XZ,2026-05-16T03:51:23.405184,15.57054590,.00124168,51.6288,95.2036,80.9283,279.3113,0,U,67683,999,1528,.51785542E-3,.37994E-3,0
