SIRION PATHFINDER-2     
1 43759U 18099B   26136.26747116  .00003869  00000+0  21501-3 0  9994
2 43759  97.4277 186.0869 0010064  57.9700 302.2508 15.14238111407797
CORVUS BC4              
1 43767U 18099K   26136.23104415  .00002935  00000+0  17342-3 0  9990
2 43767  97.4091 180.1494 0010049 109.1078 251.1242 15.12216553407577
M2 PATHFINDER           
1 45727U 20037E   26136.19118212  .00001409  00000+0  10504-3 0  9996
2 45727  97.8164 327.0655 0009944 259.5431 100.4674 15.04529167320686
NETSAT-4                
1 46504U 20068U   26136.15938767  .00015042  00000+0  34591-3 0  9995
2 46504  97.8609 141.8555 0007576  82.0985 278.1120 15.42740013310839
NETSAT-3                
1 46505U 20068V   26136.27040479  .00015693  00000+0  37574-3 0  9999
2 46505  97.8658 140.2337 0007518  94.5815 265.6290 15.41516300310761
NETSAT-1                
1 46506U 20068W   26135.98121408  .00008832  00000+0  27257-3 0  9993
2 46506  97.8744 134.6248 0006880 114.4981 245.6978 15.33808853310368
NETSAT-2                
1 46507U 20068X   26136.17550802  .00019254  00000+0  41580-3 0  9995
2 46507  97.8626 141.6591 0006259 103.8094 256.3850 15.44564228310796
GREENCUBE (IO-117)      
1 53109U 22080E   26135.81192528 -.00000003  00000+0  00000+0 0  9995
2 53109  70.1434 309.5088 0008817 297.1512  62.8248  6.42583305 89983
SITRO-AIS 5 (KATYS)     
1 57176U 23091L   26136.13416249  .00009119  00000+0  32921-3 0  9998
2 57176  97.5081 199.7453 0011001 207.8945 152.1706 15.28668923159449
SITRO-AIS 6 (CHIRKIN)   
1 57192U 23091AC  26136.10623522  .00007306  00000+0  29271-3 0  9997
2 57192  97.5088 199.0025 0011160 211.4809 148.5762 15.25283850159392
SITRO-AIS 8 (ANOKHIN)   
1 57193U 23091AD  26136.14039766  .00011376  00000+0  37921-3 0  9996
2 57193  97.5076 201.2135 0010324 203.0981 156.9797 15.31211488159540
SITRO-AIS 7 (FARTUSHNIY)
1 57194U 23091AE  26136.10298462  .00006899  00000+0  27905-3 0  9998
2 57194  97.5086 198.8406 0010989 212.5260 147.5301 15.24988122159383
SITRO-AIS 10 (BURDAEV)  
1 57199U 23091AK  26136.17282466  .00015443  00000+0  42378-3 0  9993
2 57199  97.5100 205.9799 0007336 175.3854 184.7459 15.37327889159846
SITRO-AIS 9 (SHCHUKIN)  
1 57201U 23091AM  26136.12435973  .00015562  00000+0  43331-3 0  9997
2 57201  97.5098 205.6846 0007543 176.2870 183.8432 15.36872168159827
SITRO-AIS 12 (SMIRENNIY)
1 57204U 23091AQ  26136.18607017  .00017856  00000+0  49213-3 0  9999
2 57204  97.5110 206.1949 0007332 170.0069 190.1322 15.37161945159850
SITRO-AIS 11 (SHEFFER)  
1 57208U 23091AU  26136.14292798  .00016093  00000+0  43834-3 0  9990
2 57208  97.5108 206.3781 0007257 169.8015 190.3378 15.37550412159865
SITRO-AIS 25            
1 59066U 24039R   26136.21438434  .00003709  00000+0  28868-3 0  9994
2 59066  95.3920 213.1245 0147389  80.1333 281.6496 14.93279889119955
SITRO-AIS 26            
1 59067U 24039S   26136.14443058  .00003267  00000+0  25569-3 0  9999
2 59067  95.3921 212.9807 0147707  80.9138 280.8767 14.93080809119935
SITRO-AIS 27            
1 59068U 24039T   26136.19058454  .00002907  00000+0  22588-3 0  9995
2 59068  95.3925 213.2693 0146781  79.4314 282.3407 14.93493475119965
SITRO-AIS 28            
1 59071U 24039U   26136.16876640  .00003651  00000+0  28278-3 0  9990
2 59071  95.3926 213.2997 0146768  79.3844 282.3873 14.93529477119968
GRBBETA                 
1 60237U 24128C   26136.02849504  .00002788  00000+0  19903-3 0  9994
2 60237  61.9902 329.0722 0045004 128.0351 232.4817 15.06357396101425
OOV-CUBE (TUBSAT-30)    
1 60240U 24128F   26136.04836897  .00001460  00000+0  12232-3 0  9995
2 60240  61.9948 337.6259 0048616 126.7646 233.7923 15.02598646101280
ROBUSTA-3A (MEDITERRAN*)
1 60243U 24128J   26135.91566319  .00005708  00000+0  34360-3 0  9997
2 60243  61.9865 322.3232 0045659 121.9263 238.6285 15.11135148101547
LASARSAT                
1 62391U 24247Q   26136.23614122  .00028867  00000+0  61853-3 0  9995
2 62391  44.9749  81.4658 0005040 144.8918 215.2304 15.44289693 78379
CROCUBE                 
1 62394U 24247T   26135.55919162  .00022265  00000+0  45446-3 0  9990
2 62394  44.9721  83.0806 0004663 142.7008 217.4206 15.45851171 78295
FORESAIL-1 PRIME        
1 66778U 25276DS  26136.16936858  .00003477  00000+0  17240-3 0  9997
2 66778  97.4210 210.0321 0002109 176.1142 184.0109 15.18387157 25547
KNACKSAT-2              
1 67683U 98067XZ  26136.16068756  .00037994  00000+0  51786-3 0  9998
2 67683  51.6288  95.2036 0012416  80.9283 279.3113 15.57054590 15284
